[{"OBJECT_NAME":"LEMUR-2-ARIANNA","OBJECT_ID":"2025-009CU","EPOCH":"2026-03-14T19:22:48.461376","MEAN_MOTION":15.00984629,"ECCENTRICITY":0.00048362,"INCLINATION":97.6986,"RA_OF_ASC_NODE":156.0651,"ARG_OF_PERICENTER":137.692,"MEAN_ANOMALY":222.4678,"EPHEMERIS_TYPE":0,"CLASSIFICATION_TYPE":"U","NORAD_CAT_ID":62699,"ELEMENT_SET_NO":999,"REV_AT_EPOCH":6339,"BSTAR":0.00094694205,"MEAN_MOTION_DOT":0.00012039,"MEAN_MOTION_DDOT":0},{"OBJECT_NAME":"LEMUR-2-ALISIA","OBJECT_ID":"2025-009DB","EPOCH":"2026-03-14T22:28:59.119968","MEAN_MOTION":15.01250773,"ECCENTRICITY":0.0006705,"INCLINATION":97.7023,"RA_OF_ASC_NODE":156.8538,"ARG_OF_PERICENTER":148.5828,"MEAN_ANOMALY":211.5798,"EPHEMERIS_TYPE":0,"CLASSIFICATION_TYPE":"U","NORAD_CAT_ID":62706,"ELEMENT_SET_NO":999,"REV_AT_EPOCH":8601,"BSTAR":0.00085327689,"MEAN_MOTION_DOT":0.00010919,"MEAN_MOTION_DDOT":0},{"OBJECT_NAME":"LEMUR-2-ROUNDTRIPPER","OBJECT_ID":"2025-009DG","EPOCH":"2026-03-14T22:58:27.313248","MEAN_MOTION":15.02194139,"ECCENTRICITY":0.00057781,"INCLINATION":97.7296,"RA_OF_ASC_NODE":156.8836,"ARG_OF_PERICENTER":107.4798,"MEAN_ANOMALY":252.7058,"EPHEMERIS_TYPE":0,"CLASSIFICATION_TYPE":"U","NORAD_CAT_ID":62711,"ELEMENT_SET_NO":999,"REV_AT_EPOCH":6347,"BSTAR":0.00091000972,"MEAN_MOTION_DOT":0.00011942,"MEAN_MOTION_DDOT":0},{"OBJECT_NAME":"LEMUR-2-MYNAMEISJEFF","OBJECT_ID":"2025-009DH","EPOCH":"2026-03-14T22:56:22.330464","MEAN_MOTION":15.02198711,"ECCENTRICITY":0.00049416,"INCLINATION":97.7343,"RA_OF_ASC_NODE":157.2071,"ARG_OF_PERICENTER":129.7613,"MEAN_ANOMALY":230.4048,"EPHEMERIS_TYPE":0,"CLASSIFICATION_TYPE":"U","NORAD_CAT_ID":62712,"ELEMENT_SET_NO":999,"REV_AT_EPOCH":6347,"BSTAR":0.00098296738,"MEAN_MOTION_DOT":0.00012907,"MEAN_MOTION_DDOT":0},{"OBJECT_NAME":"LEMUR-2-LEIA-PHILIP","OBJECT_ID":"2025-052AN","EPOCH":"2026-03-14T23:07:41.178720","MEAN_MOTION":14.96708225,"ECCENTRICITY":0.00039365,"INCLINATION":97.6942,"RA_OF_ASC_NODE":327.4728,"ARG_OF_PERICENTER":163.5864,"MEAN_ANOMALY":196.5486,"EPHEMERIS_TYPE":0,"CLASSIFICATION_TYPE":"U","NORAD_CAT_ID":63246,"ELEMENT_SET_NO":999,"REV_AT_EPOCH":5457,"BSTAR":0.00067301409,"MEAN_MOTION_DOT":7.635e-5,"MEAN_MOTION_DDOT":0},{"OBJECT_NAME":"LEMUR-2-LIA-MARTIN","OBJECT_ID":"2025-052AQ","EPOCH":"2026-03-14T15:36:19.918656","MEAN_MOTION":14.96878699,"ECCENTRICITY":0.00044656,"INCLINATION":97.7009,"RA_OF_ASC_NODE":327.5316,"ARG_OF_PERICENTER":124.3476,"MEAN_ANOMALY":235.8168,"EPHEMERIS_TYPE":0,"CLASSIFICATION_TYPE":"U","NORAD_CAT_ID":63248,"ELEMENT_SET_NO":999,"REV_AT_EPOCH":5453,"BSTAR":0.00077462831,"MEAN_MOTION_DOT":8.836e-5,"MEAN_MOTION_DDOT":0},{"OBJECT_NAME":"LEMUR-2-DELOITTE-1","OBJECT_ID":"2025-052BB","EPOCH":"2026-03-14T22:52:44.992992","MEAN_MOTION":14.96847452,"ECCENTRICITY":0.00025545,"INCLINATION":97.7029,"RA_OF_ASC_NODE":328.1463,"ARG_OF_PERICENTER":69.9314,"MEAN_ANOMALY":290.2183,"EPHEMERIS_TYPE":0,"CLASSIFICATION_TYPE":"U","NORAD_CAT_ID":63259,"ELEMENT_SET_NO":999,"REV_AT_EPOCH":5459,"BSTAR":0.00049676699,"MEAN_MOTION_DOT":5.638e-5,"MEAN_MOTION_DDOT":0},{"OBJECT_NAME":"LEMUR-2-EMERSONROSE","OBJECT_ID":"2025-052BD","EPOCH":"2026-03-14T16:29:42.480672","MEAN_MOTION":14.98297579,"ECCENTRICITY":0.00020615,"INCLINATION":97.7004,"RA_OF_ASC_NODE":328.2529,"ARG_OF_PERICENTER":33.7646,"MEAN_ANOMALY":326.3708,"EPHEMERIS_TYPE":0,"CLASSIFICATION_TYPE":"U","NORAD_CAT_ID":63261,"ELEMENT_SET_NO":999,"REV_AT_EPOCH":5458,"BSTAR":0.00066934781,"MEAN_MOTION_DOT":7.911e-5,"MEAN_MOTION_DDOT":0},{"OBJECT_NAME":"LEMUR-2-MARACHE-FRAN","OBJECT_ID":"2025-052BE","EPOCH":"2026-03-14T17:10:19.715808","MEAN_MOTION":14.98985308,"ECCENTRICITY":0.00023923,"INCLINATION":97.6998,"RA_OF_ASC_NODE":328.478,"ARG_OF_PERICENTER":45.511,"MEAN_ANOMALY":314.6308,"EPHEMERIS_TYPE":0,"CLASSIFICATION_TYPE":"U","NORAD_CAT_ID":63262,"ELEMENT_SET_NO":999,"REV_AT_EPOCH":5460,"BSTAR":0.00084950527,"MEAN_MOTION_DOT":0.0001024,"MEAN_MOTION_DDOT":0},{"OBJECT_NAME":"LEMUR-2-THEFALCONER","OBJECT_ID":"2025-052BG","EPOCH":"2026-03-14T23:11:14.370720","MEAN_MOTION":14.96580153,"ECCENTRICITY":0.00014969,"INCLINATION":97.6968,"RA_OF_ASC_NODE":327.8798,"ARG_OF_PERICENTER":1.4014,"MEAN_ANOMALY":358.7212,"EPHEMERIS_TYPE":0,"CLASSIFICATION_TYPE":"U","NORAD_CAT_ID":63264,"ELEMENT_SET_NO":999,"REV_AT_EPOCH":5459,"BSTAR":0.00062139657,"MEAN_MOTION_DOT":7.02e-5,"MEAN_MOTION_DDOT":0},{"OBJECT_NAME":"LEMUR-2-UNTITLED-SC","OBJECT_ID":"2025-061A","EPOCH":"2026-03-14T22:03:50.985504","MEAN_MOTION":15.12756751,"ECCENTRICITY":0.00175258,"INCLINATION":97.5559,"RA_OF_ASC_NODE":50.0644,"ARG_OF_PERICENTER":226.4645,"MEAN_ANOMALY":133.513,"EPHEMERIS_TYPE":0,"CLASSIFICATION_TYPE":"U","NORAD_CAT_ID":63351,"ELEMENT_SET_NO":999,"REV_AT_EPOCH":5333,"BSTAR":0.00033477189,"MEAN_MOTION_DOT":5.826e-5,"MEAN_MOTION_DDOT":0},{"OBJECT_NAME":"LEMUR-2-ESPERANZA","OBJECT_ID":"2025-061B","EPOCH":"2026-03-14T21:38:42.700704","MEAN_MOTION":15.12824605,"ECCENTRICITY":0.00171815,"INCLINATION":97.5563,"RA_OF_ASC_NODE":50.1193,"ARG_OF_PERICENTER":225.8076,"MEAN_ANOMALY":134.1744,"EPHEMERIS_TYPE":0,"CLASSIFICATION_TYPE":"U","NORAD_CAT_ID":63352,"ELEMENT_SET_NO":999,"REV_AT_EPOCH":5333,"BSTAR":0.00029640697,"MEAN_MOTION_DOT":5.159e-5,"MEAN_MOTION_DDOT":0},{"OBJECT_NAME":"LEMUR-2-KREMPEL-BRO2","OBJECT_ID":"2025-061C","EPOCH":"2026-03-14T21:20:42.047520","MEAN_MOTION":15.13250321,"ECCENTRICITY":0.00183324,"INCLINATION":97.561,"RA_OF_ASC_NODE":50.5204,"ARG_OF_PERICENTER":218.2778,"MEAN_ANOMALY":141.7153,"EPHEMERIS_TYPE":0,"CLASSIFICATION_TYPE":"U","NORAD_CAT_ID":63353,"ELEMENT_SET_NO":999,"REV_AT_EPOCH":5334,"BSTAR":0.00033397734,"MEAN_MOTION_DOT":5.895e-5,"MEAN_MOTION_DDOT":0},{"OBJECT_NAME":"LEMUR-2-THERMORAPTOR","OBJECT_ID":"2025-061D","EPOCH":"2026-03-14T21:01:09.718752","MEAN_MOTION":15.13311949,"ECCENTRICITY":0.00180614,"INCLINATION":97.5617,"RA_OF_ASC_NODE":50.5658,"ARG_OF_PERICENTER":217.17,"MEAN_ANOMALY":142.8281,"EPHEMERIS_TYPE":0,"CLASSIFICATION_TYPE":"U","NORAD_CAT_ID":63354,"ELEMENT_SET_NO":999,"REV_AT_EPOCH":5334,"BSTAR":0.00034504456,"MEAN_MOTION_DOT":6.102e-5,"MEAN_MOTION_DDOT":0},{"OBJECT_NAME":"LEMUR-2-NEUROSPICY","OBJECT_ID":"2025-061E","EPOCH":"2026-03-14T22:05:46.433184","MEAN_MOTION":15.13427595,"ECCENTRICITY":0.00157338,"INCLINATION":97.5545,"RA_OF_ASC_NODE":50.3102,"ARG_OF_PERICENTER":220.2184,"MEAN_ANOMALY":139.7884,"EPHEMERIS_TYPE":0,"CLASSIFICATION_TYPE":"U","NORAD_CAT_ID":63355,"ELEMENT_SET_NO":999,"REV_AT_EPOCH":5335,"BSTAR":0.00029630711,"MEAN_MOTION_DOT":5.243e-5,"MEAN_MOTION_DDOT":0},{"OBJECT_NAME":"LEMUR-2-TILLINFINITY","OBJECT_ID":"2025-061F","EPOCH":"2026-03-14T22:13:44.973408","MEAN_MOTION":15.14006102,"ECCENTRICITY":0.00172643,"INCLINATION":97.5531,"RA_OF_ASC_NODE":50.5401,"ARG_OF_PERICENTER":207.7733,"MEAN_ANOMALY":152.2578,"EPHEMERIS_TYPE":0,"CLASSIFICATION_TYPE":"U","NORAD_CAT_ID":63356,"ELEMENT_SET_NO":999,"REV_AT_EPOCH":5337,"BSTAR":0.00032794447,"MEAN_MOTION_DOT":5.909e-5,"MEAN_MOTION_DDOT":0}]
