LEMUR-2-ARIANNA         
1 62699U 25009CU  26073.80750534  .00012039  00000+0  94694-3 0  9997
2 62699  97.6986 156.0651 0004836 137.6920 222.4678 15.00984629 63398
LEMUR-2-ALISIA          
1 62706U 25009DB  26073.93679537  .00010919  00000+0  85328-3 0  9992
2 62706  97.7023 156.8538 0006705 148.5828 211.5798 15.01250773 86010
LEMUR-2-ROUNDTRIPPER    
1 62711U 25009DG  26073.95726057  .00011942  00000+0  91001-3 0  9992
2 62711  97.7296 156.8836 0005778 107.4798 252.7058 15.02194139 63473
LEMUR-2-MYNAMEISJEFF    
1 62712U 25009DH  26073.95581401  .00012907  00000+0  98297-3 0  9991
2 62712  97.7343 157.2071 0004941 129.7613 230.4048 15.02198711 63479
LEMUR-2-LEIA-PHILIP     
1 63246U 25052AN  26073.96367105  .00007635  00000+0  67301-3 0  9990
2 63246  97.6942 327.4728 0003936 163.5864 196.5486 14.96708225 54571
LEMUR-2-LIA-MARTIN      
1 63248U 25052AQ  26073.65023054  .00008836  00000+0  77463-3 0  9994
2 63248  97.7009 327.5316 0004465 124.3476 235.8168 14.96878699 54537
LEMUR-2-DELOITTE-1      
1 63259U 25052BB  26073.95329853  .00005638  00000+0  49677-3 0  9998
2 63259  97.7029 328.1463 0002554  69.9314 290.2183 14.96847452 54594
LEMUR-2-EMERSONROSE     
1 63261U 25052BD  26073.68729723  .00007911  00000+0  66935-3 0  9993
2 63261  97.7004 328.2529 0002061  33.7646 326.3708 14.98297579 54588
LEMUR-2-MARACHE-FRAN    
1 63262U 25052BE  26073.71550597  .00010240  00000+0  84951-3 0  9996
2 63262  97.6998 328.4780 0002392  45.5110 314.6308 14.98985308 54608
LEMUR-2-THEFALCONER     
1 63264U 25052BG  26073.96613855  .00007020  00000+0  62140-3 0  9990
2 63264  97.6968 327.8798 0001496   1.4014 358.7212 14.96580153 54595
LEMUR-2-UNTITLED-SC     
1 63351U 25061A   26073.91934011  .00005826  00000+0  33477-3 0  9995
2 63351  97.5559  50.0644 0017525 226.4645 133.5130 15.12756751 53338
LEMUR-2-ESPERANZA       
1 63352U 25061B   26073.90188311  .00005159  00000+0  29641-3 0  9996
2 63352  97.5563  50.1193 0017181 225.8076 134.1744 15.12824605 53335
LEMUR-2-KREMPEL-BRO2    
1 63353U 25061C   26073.88937555  .00005895  00000+0  33398-3 0  9997
2 63353  97.5610  50.5204 0018332 218.2778 141.7153 15.13250321 53348
LEMUR-2-THERMORAPTOR    
1 63354U 25061D   26073.87580693  .00006102  00000+0  34504-3 0  9996
2 63354  97.5617  50.5658 0018061 217.1700 142.8281 15.13311949 53349
LEMUR-2-NEUROSPICY      
1 63355U 25061E   26073.92067631  .00005243  00000+0  29631-3 0  9995
2 63355  97.5545  50.3102 0015733 220.2184 139.7884 15.13427595 53356
LEMUR-2-TILLINFINITY    
1 63356U 25061F   26073.92621497  .00005909  00000+0  32794-3 0  9995
2 63356  97.5531  50.5401 0017264 207.7733 152.2578 15.14006102 53377
